NORAD_CAT_ID,OBJECT_NAME,OBJECT_TYPE,EPOCH,MEAN_MOTION,ECCENTRICITY,INCLINATION,RA_OF_ASC_NODE,ARG_OF_PERICENTER,MEAN_ANOMALY,BSTAR,MEAN_MOTION_DOT,MEAN_MOTION_DDOT,TLE_LINE0,TLE_LINE1,TLE_LINE2,SEMIMAJOR_AXIS,PERIOD,APOGEE,PERIGEE,DECAYED
52588.0,STARLINK-3917,PAYLOAD,2022-09-24 15:35:57,15.08787925,0.0001725,53.2208,24.6402,73.3896,286.7285,0.0009182,0.00014335,0.0,0 STARLINK-3917,1 52588U 22051BE  22267.64997566  .00014335  00000-0  91820-3 0  9998,2 52588  53.2208  24.6402 0001725  73.3896 286.7285 15.08787925 21068,6918.04,95.441,541.0980000000002,538.711,0.0
52588.0,STARLINK-3917,PAYLOAD,2022-09-25 02:43:37,15.08853393,0.0001696,53.221,22.5593,60.1816,299.9344,0.00015291,2.147e-05,0.0,0 STARLINK-3917,1 52588U 22051BE  22268.11363067  .00002147  00000-0  15291-3 0  9990,2 52588  53.2210  22.5593 0001696  60.1816 299.9344 15.08853393 21203,6917.839,95.437,540.878,538.531,0.0
52588.0,STARLINK-3917,PAYLOAD,2022-09-25 12:15:56,15.08855471,0.0001785,53.22,20.7748,53.7931,306.3226,0.00027171,4.041e-05,0.0,0 STARLINK-3917,1 52588U 22051BE  22268.51106954  .00004041  00000-0  27171-3 0  9999,2 52588  53.2200  20.7748 0001785  53.7931 306.3226 15.08855471 21198,6917.833000000001,95.437,540.933,538.4630000000002,0.0
52588.0,STARLINK-3917,PAYLOAD,2022-09-25 15:26:42,15.08852092,0.0001546,53.2211,20.18,51.2586,308.8544,0.00028503,4.253e-05,0.0,0 STARLINK-3917,1 52588U 22051BE  22268.64354924  .00004253  00000-0  28503-3 0  9990,2 52588  53.2211  20.1800 0001546  51.2586 308.8544 15.08852092 21216,6917.843000000003,95.437,540.778,538.639,0.0
52588.0,STARLINK-3917,PAYLOAD,2022-09-26 08:55:58,15.08835213,0.0001623,53.2208,16.9099,58.9833,301.1318,-1.4627e-05,-5.21e-06,0.0,0 STARLINK-3917,1 52588U 22051BE  22269.37220031 -.00000521  00000-0 -14627-4 0  9991,2 52588  53.2208  16.9099 0001623  58.9833 301.1318 15.08835213 21390,6917.895,95.438,540.883,538.637,0.0
52588.0,STARLINK-3917,PAYLOAD,2022-09-26 13:42:07,15.08836183,0.0001646,53.2208,16.0177,59.1419,300.9735,-1.1414e-05,-4.7e-06,0.0,0 STARLINK-3917,1 52588U 22051BE  22269.57092012 -.00000470  00000-0 -11414-4 0  9993,2 52588  53.2208  16.0177 0001646  59.1419 300.9735 15.08836183 21359,6917.892,95.438,540.896,538.618,0.0
52588.0,STARLINK-3917,PAYLOAD,2022-09-27 05:35:57,15.08858784,0.0001971,53.2202,13.0474,53.2655,306.8518,-9.0739e-05,-1.733e-05,0.0,0 STARLINK-3917,1 52588U 22051BE  22270.23330793 -.00001733  00000-0 -90739-4 0  9999,2 52588  53.2202  13.0474 0001971  53.2655 306.8518 15.08858784 21522,6917.823,95.436,541.0509999999998,538.3240000000002,0.0
52588.0,STARLINK-3917,PAYLOAD,2022-09-27 11:57:29,15.08863938,0.0001931,53.22,11.8576,55.3804,304.737,7.9425e-06,-1.62e-06,0.0,0 STARLINK-3917,1 52588U 22051BE  22270.49825966 -.00000162  00000-0  79425-5 0  9992,2 52588  53.2200  11.8576 0001931  55.3804 304.7370 15.08863938 21568,6917.807,95.436,541.008,538.336,0.0
52588.0,STARLINK-3917,PAYLOAD,2022-09-28 13:23:41,15.08837001,0.0001574,53.2185,7.0941,52.7589,307.3546,-6.5605e-05,-1.332e-05,0.0,0 STARLINK-3917,1 52588U 22051BE  22271.55811343 -.00001332  00000-0 -65605-4 0  9999,2 52588  53.2185   7.0941 0001574  52.7589 307.3546 15.08837001 21721,6917.89,95.438,540.8430000000002,538.6659999999998,0.0
52588.0,STARLINK-3917,PAYLOAD,2022-09-28 16:34:27,15.08832971,0.0001672,53.2179,6.5034,56.6847,303.4305,-3.543e-05,-8.52e-06,0.0,0 STARLINK-3917,1 52588U 22051BE  22271.69059688 -.00000852  00000-0 -35430-4 0  9999,2 52588  53.2179   6.5034 0001672  56.6847 303.4305 15.08832971 21675,6917.901999999999,95.438,540.924,538.61,0.0
52588.0,STARLINK-3917,PAYLOAD,2022-09-29 13:14:29,15.08833848,0.0001568,53.2197,2.6379,59.2779,300.8368,-3.9127e-05,-9.11e-06,0.0,0 STARLINK-3917,1 52588U 22051BE  22272.55172466 -.00000911  00000-0 -39127-4 0  9998,2 52588  53.2197   2.6379 0001568  59.2779 300.8368 15.08833848 21800,6917.899,95.438,540.849,538.679,0.0
52588.0,STARLINK-3917,PAYLOAD,2022-09-29 22:46:47,15.08842069,0.0001665999999999,53.2196,0.8536,58.5865,301.5289,-5.7208e-06,-3.79e-06,0.0,0 STARLINK-3917,1 52588U 22051BE  22272.94915934 -.00000379  00000-0 -57208-5 0  9995,2 52588  53.2196   0.8536 0001666  58.5865 301.5289 15.08842069 21930,6917.874,95.437,540.8919999999998,538.587,0.0
52588.0,STARLINK-3917,PAYLOAD,2022-09-30 13:05:15,15.08843861,0.0001789,53.22,358.1773,56.8817,303.2346,0.00023038,3.381e-05,0.0,0 STARLINK-3917,1 52588U 22051BE  22273.54531525  .00003381  00000-0  23038-3 0  9998,2 52588  53.2200 358.1773 0001789  56.8817 303.2346 15.08843861 21958,6917.869000000002,95.437,540.971,538.496,0.0
52588.0,STARLINK-3917,PAYLOAD,2022-09-30 16:16:01,15.08843732,0.000172,53.2195,357.5828,53.9144,306.2008,0.00020537,2.982e-05,0.0,0 STARLINK-3917,1 52588U 22051BE  22273.67779610  .00002982  00000-0  20537-3 0  9998,2 52588  53.2195 357.5828 0001720  53.9144 306.2008 15.08843732 21978,6917.869000000002,95.437,540.924,538.544,0.0
52588.0,STARLINK-3917,PAYLOAD,2022-10-01 04:59:06,15.08846226,0.0001751999999999,53.2194,355.2037,57.3809,302.7352,0.00020732,3.014e-05,0.0,0 STARLINK-3917,1 52588U 22051BE  22274.20771332  .00003014  00000-0  20732-3 0  9995,2 52588  53.2194 355.2037 0001752  57.3809 302.7352 15.08846226 22127,6917.861,95.437,540.938,538.514,0.0
52588.0,STARLINK-3917,PAYLOAD,2022-10-01 12:56:02,15.08844897,0.0001761999999999,53.2196,353.7167,57.0139,303.1022,0.00021072,3.068e-05,0.0,0 STARLINK-3917,1 52588U 22051BE  22274.53891385  .00003068  00000-0  21072-3 0  9999,2 52588  53.2196 353.7167 0001762  57.0139 303.1022 15.08844897 22109,6917.865,95.437,540.9490000000002,538.511,0.0
52588.0,STARLINK-3917,PAYLOAD,2022-10-02 04:49:54,15.08839455,0.0001682,53.2194,350.7437,55.9247,304.1905,-5.1501e-05,-1.108e-05,0.0,0 STARLINK-3917,1 52588U 22051BE  22275.20132066 -.00001108  00000-0 -51501-4 0  9994,2 52588  53.2194 350.7437 0001682  55.9247 304.1905 15.08839455 22275,6917.882,95.438,540.911,538.5830000000002,0.0
52588.0,STARLINK-3917,PAYLOAD,2022-10-02 12:46:49,15.08839231,0.0001636999999999,53.2193,349.2567,54.5205,305.594,-5.976100000000001e-05,-1.239e-05,0.0,0 STARLINK-3917,1 52588U 22051BE  22275.53252111 -.00001239  00000-0 -59761-4 0  9995,2 52588  53.2193 349.2567 0001637  54.5205 305.5940 15.08839231 22254,6917.8830000000025,95.438,540.88,538.615,0.0
52588.0,STARLINK-3917,PAYLOAD,2022-10-02 14:22:12,15.08841386,0.0001615,53.2189,348.9584,54.96100000000001,305.1534,-5.4221e-05,-1.151e-05,0.0,0 STARLINK-3917,1 52588U 22051BE  22275.59875930 -.00001151  00000-0 -54221-4 0  9990,2 52588  53.2189 348.9584 0001615  54.9610 305.1534 15.08841386 22264,6917.876,95.437,540.8580000000002,538.624,0.0
52588.0,STARLINK-3917,PAYLOAD,2022-10-03 04:40:40,15.08850509,0.0001547,53.2189,346.2822,55.7264,304.3875,5.430600000000001e-05,5.77e-06,0.0,0 STARLINK-3917,1 52588U 22051BE  22276.19491013  .00000577  00000-0  54306-4 0  9996,2 52588  53.2189 346.2822 0001547  55.7264 304.3875 15.08850509 22422,6917.848000000001,95.437,540.783,538.643,0.0
52588.0,STARLINK-3917,PAYLOAD,2022-10-03 11:02:12,15.0885144,0.0001761999999999,53.2186,345.0934,50.4012,309.7136,0.00019003,2.738e-05,0.0,0 STARLINK-3917,1 52588U 22051BE  22276.45986912  .00002738  00000-0  19003-3 0  9997,2 52588  53.2186 345.0934 0001762  50.4012 309.7136 15.08851440 22392,6917.845,95.437,540.929,538.491,0.0
52588.0,STARLINK-3917,PAYLOAD,2022-10-04 10:52:59,15.08855246,0.0001705,53.2188,340.6328,48.1238,311.9899,0.00039142,5.949e-05,0.0,0 STARLINK-3917,1 52588U 22051BE  22277.45346495  .00005949  00000-0  39142-3 0  9997,2 52588  53.2188 340.6328 0001705  48.1238 311.9899 15.08855246 22617,6917.834,95.437,540.878,538.519,0.0
52588.0,STARLINK-3917,PAYLOAD,2022-10-05 04:22:13,15.08840883,0.0001785,53.2173,337.3606,49.9961,310.1187,-7.0458e-05,-1.409e-05,0.0,0 STARLINK-3917,1 52588U 22051BE  22278.18210515 -.00001409  00000-0 -70458-4 0  9996,2 52588  53.2173 337.3606 0001785  49.9961 310.1187 15.08840883 22727,6917.878000000002,95.437,540.9780000000002,538.508,0.0
52588.0,STARLINK-3917,PAYLOAD,2022-10-05 10:43:46,15.08837998,0.0001784,53.2177,336.1713,52.1883,307.9271,-2.1943000000000007e-05,-6.37e-06,0.0,0 STARLINK-3917,1 52588U 22051BE  22278.44707038 -.00000637  00000-0 -21943-4 0  9993,2 52588  53.2177 336.1713 0001784  52.1883 307.9271 15.08837998 22692,6917.887,95.438,540.986,538.5169999999998,0.0
52588.0,STARLINK-3917,PAYLOAD,2022-10-06 04:13:02,15.08827399,0.0001662,53.2177,332.9002,57.7095,302.4058,-0.00015019,-2.677e-05,0.0,0 STARLINK-3917,1 52588U 22051BE  22279.17571905 -.00002677  00000-0 -15019-3 0  9998,2 52588  53.2177 332.9002 0001662  57.7095 302.4058 15.08827399 22875,6917.919,95.438,540.934,538.634,0.0
52588.0,STARLINK-3917,PAYLOAD,2022-10-06 10:34:34,15.08833424,0.0001704,53.2185,331.7137,45.8115,314.3017,-6.7036e-05,-1.355e-05,0.0,0 STARLINK-3917,1 52588U 22051BE  22279.44068190 -.00001355  00000-0 -67036-4 0  9994,2 52588  53.2185 331.7137 0001704  45.8115 314.3017 15.08833424 22848,6917.9,95.438,540.944,538.587,0.0
52588.0,STARLINK-3917,PAYLOAD,2022-10-06 20:06:53,15.08843333,0.0001724,53.219,329.9296,50.1709,309.9435,2.3526e-05,8.6e-07,0.0,0 STARLINK-3917,1 52588U 22051BE  22279.83811453  .00000086  00000-0  23526-4 0  9999,2 52588  53.2190 329.9296 0001724  50.1709 309.9435 15.08843333 22977,6917.87,95.437,540.928,538.543,0.0
52588.0,STARLINK-3917,PAYLOAD,2022-10-07 04:03:49,15.08834953,0.0001732,53.2179,328.4411,51.6903,308.4244,0.00023062,3.384e-05,0.0,0 STARLINK-3917,1 52588U 22051BE  22280.16932123  .00003384  00000-0  23062-3 0  9993,2 52588  53.2179 328.4411 0001732  51.6903 308.4244 15.08834953 23025,6917.896,95.438,540.9590000000002,538.563,0.0
52588.0,STARLINK-3917,PAYLOAD,2022-10-07 10:25:21,15.08843106,0.0001683,53.2184,327.253,51.6368,308.4775,0.0003249,4.887e-05,0.0,0 STARLINK-3917,1 52588U 22051BE  22280.43427777  .00004887  00000-0  32490-3 0  9991,2 52588  53.2184 327.2530 0001683  51.6368 308.4775 15.08843106 22994,6917.871,95.437,540.9,538.572,0.0
